{"fetched_at":"2026-07-21T07:06:28.574Z","source":"https://celestrak.org/NORAD/elements/gp.php?GROUP=oneweb&FORMAT=JSON","constellation":"oneweb","records":[{"OBJECT_NAME":"ONEWEB-0136","OBJECT_ID":"2020-100AA","EPOCH":"2026-07-20T21:19:16.686912","CLASSIFICATION_TYPE":"U","MEAN_MOTION":13.12443154,"ECCENTRICITY":0.00021523,"INCLINATION":87.8977,"RA_OF_ASC_NODE":343.9505,"ARG_OF_PERICENTER":101.7336,"MEAN_ANOMALY":258.4034,"EPHEMERIS_TYPE":0,"NORAD_CAT_ID":47282,"ELEMENT_SET_NO":999,"REV_AT_EPOCH":26908,"BSTAR":-0.0010433234,"MEAN_MOTION_DOT":-0.00000363,"MEAN_MOTION_DDOT":0},{"OBJECT_NAME":"ONEWEB-0137","OBJECT_ID":"2020-100AB","EPOCH":"2026-07-20T22:08:04.531488","CLASSIFICATION_TYPE":"U","MEAN_MOTION":13.12443464,"ECCENTRICITY":0.00017903,"INCLINATION":87.8986,"RA_OF_ASC_NODE":343.955,"ARG_OF_PERICENTER":94.6529,"MEAN_ANOMALY":265.4804,"EPHEMERIS_TYPE":0,"NORAD_CAT_ID":47283,"ELEMENT_SET_NO":999,"REV_AT_EPOCH":26899,"BSTAR":0.0011987152,"MEAN_MOTION_DOT":0.00000444,"MEAN_MOTION_DDOT":0},{"OBJECT_NAME":"ONEWEB-0138","OBJECT_ID":"2020-100AC","EPOCH":"2026-07-20T21:36:21.908448","CLASSIFICATION_TYPE":"U","MEAN_MOTION":13.12443945,"ECCENTRICITY":0.00020746,"INCLINATION":87.8976,"RA_OF_ASC_NODE":343.9641,"ARG_OF_PERICENTER":98.8432,"MEAN_ANOMALY":261.2931,"EPHEMERIS_TYPE":0,"NORAD_CAT_ID":47284,"ELEMENT_SET_NO":999,"REV_AT_EPOCH":26907,"BSTAR":-0.00039325114,"MEAN_MOTION_DOT":-0.00000129,"MEAN_MOTION_DDOT":0},{"OBJECT_NAME":"ONEWEB-0139","OBJECT_ID":"2020-100AD","EPOCH":"2026-07-20T20:45:20.726208","CLASSIFICATION_TYPE":"U","MEAN_MOTION":13.12441409,"ECCENTRICITY":0.00019105,"INCLINATION":87.8978,"RA_OF_ASC_NODE":343.9566,"ARG_OF_PERICENTER":95.6641,"MEAN_ANOMALY":264.4705,"EPHEMERIS_TYPE":0,"NORAD_CAT_ID":47285,"ELEMENT_SET_NO":999,"REV_AT_EPOCH":26914,"BSTAR":0.000002982584,"MEAN_MOTION_DOT":1.4e-7,"MEAN_MOTION_DDOT":0},{"OBJECT_NAME":"ONEWEB-0140","OBJECT_ID":"2020-100AE","EPOCH":"2026-07-20T21:29:02.501376","CLASSIFICATION_TYPE":"U","MEAN_MOTION":13.12443563,"ECCENTRICITY":0.00018021,"INCLINATION":87.898,"RA_OF_ASC_NODE":343.9425,"ARG_OF_PERICENTER":102.5353,"MEAN_ANOMALY":257.5978,"EPHEMERIS_TYPE":0,"NORAD_CAT_ID":47286,"ELEMENT_SET_NO":999,"REV_AT_EPOCH":26911,"BSTAR":-0.00081279358,"MEAN_MOTION_DOT":-0.0000028,"MEAN_MOTION_DDOT":0},{"OBJECT_NAME":"ONEWEB-0141","OBJECT_ID":"2020-100AF","EPOCH":"2026-07-20T20:44:55.397184","CLASSIFICATION_TYPE":"U","MEAN_MOTION":13.12441803,"ECCENTRICITY":0.00017604,"INCLINATION":87.8979,"RA_OF_ASC_NODE":343.9533,"ARG_OF_PERICENTER":87.8286,"MEAN_ANOMALY":272.3044,"EPHEMERIS_TYPE":0,"NORAD_CAT_ID":47287,"ELEMENT_SET_NO":999,"REV_AT_EPOCH":26909,"BSTAR":0.00056599835,"MEAN_MOTION_DOT":0.00000216,"MEAN_MOTION_DDOT":0},{"OBJECT_NAME":"ONEWEB-0142","OBJECT_ID":"2020-100AG","EPOCH":"2026-07-20T22:18:01.942560","CLASSIFICATION_TYPE":"U","MEAN_MOTION":13.12443826,"ECCENTRICITY":0.00021023,"INCLINATION":87.8973,"RA_OF_ASC_NODE":343.9599,"ARG_OF_PERICENTER":87.6793,"MEAN_ANOMALY":272.4576,"EPHEMERIS_TYPE":0,"NORAD_CAT_ID":47288,"ELEMENT_SET_NO":999,"REV_AT_EPOCH":26909,"BSTAR":0.0010367731,"MEAN_MOTION_DOT":0.00000386,"MEAN_MOTION_DDOT":0},{"OBJECT_NAME":"ONEWEB-0143","OBJECT_ID":"2020-100AH","EPOCH":"2026-07-20T20:42:41.372640","CLASSIFICATION_TYPE":"U","MEAN_MOTION":13.12442153,"ECCENTRICITY":0.00018285,"INCLINATION":87.8974,"RA_OF_ASC_NODE":343.9727,"ARG_OF_PERICENTER":95.4413,"MEAN_ANOMALY":264.6924,"EPHEMERIS_TYPE":0,"NORAD_CAT_ID":47289,"ELEMENT_SET_NO":999,"REV_AT_EPOCH":26906,"BSTAR":0.000346399,"MEAN_MOTION_DOT":0.00000137,"MEAN_MOTION_DDOT":0},{"OBJECT_NAME":"ONEWEB-0144","OBJECT_ID":"2020-100AJ","EPOCH":"2026-07-20T21:51:00.599040","CLASSIFICATION_TYPE":"U","MEAN_MOTION":13.12443217,"ECCENTRICITY":0.00022314,"INCLINATION":87.8983,"RA_OF_ASC_NODE":343.9398,"ARG_OF_PERICENTER":95.8718,"MEAN_ANOMALY":264.2665,"EPHEMERIS_TYPE":0,"NORAD_CAT_ID":47290,"ELEMENT_SET_NO":999,"REV_AT_EPOCH":26899,"BSTAR":0.00056856906,"MEAN_MOTION_DOT":0.00000217,"MEAN_MOTION_DDOT":0},{"OBJECT_NAME":"ONEWEB-0145","OBJECT_ID":"2020-100AK","EPOCH":"2026-07-20T21:09:31.235328","CLASSIFICATION_TYPE":"U","MEAN_MOTION":13.12442753,"ECCENTRICITY":0.00019438,"INCLINATION":87.8971,"RA_OF_ASC_NODE":343.9693,"ARG_OF_PERICENTER":95.9936,"MEAN_ANOMALY":264.1414,"EPHEMERIS_TYPE":0,"NORAD_CAT_ID":47291,"ELEMENT_SET_NO":999,"REV_AT_EPOCH":26918,"BSTAR":-0.0012331354,"MEAN_MOTION_DOT":-0.00000431,"MEAN_MOTION_DDOT":0},{"OBJECT_NAME":"ONEWEB-0146","OBJECT_ID":"2020-100AL","EPOCH":"2026-07-20T21:04:38.599392","CLASSIFICATION_TYPE":"U","MEAN_MOTION":13.1244246,"ECCENTRICITY":0.00015935,"INCLINATION":87.8979,"RA_OF_ASC_NODE":343.9641,"ARG_OF_PERICENTER":104.7941,"MEAN_ANOMALY":255.3364,"EPHEMERIS_TYPE":0,"NORAD_CAT_ID":47292,"ELEMENT_SET_NO":999,"REV_AT_EPOCH":26909,"BSTAR":-0.0010391812,"MEAN_MOTION_DOT":-0.00000361,"MEAN_MOTION_DDOT":0},{"OBJECT_NAME":"ONEWEB-0147","OBJECT_ID":"2020-100AM","EPOCH":"2026-07-20T22:05:38.538816","CLASSIFICATION_TYPE":"U","MEAN_MOTION":13.12443302,"ECCENTRICITY":0.00019278,"INCLINATION":87.8979,"RA_OF_ASC_NODE":343.9382,"ARG_OF_PERICENTER":101.7252,"MEAN_ANOMALY":258.4093,"EPHEMERIS_TYPE":0,"NORAD_CAT_ID":47293,"ELEMENT_SET_NO":999,"REV_AT_EPOCH":26899,"BSTAR":0.00099180402,"MEAN_MOTION_DOT":0.0000037,"MEAN_MOTION_DDOT":0},{"OBJECT_NAME":"ONEWEB-0115","OBJECT_ID":"2021-025A","EPOCH":"2026-07-20T20:18:35.477280","CLASSIFICATION_TYPE":"U","MEAN_MOTION":13.13467572,"ECCENTRICITY":0.00018707,"INCLINATION":87.8983,"RA_OF_ASC_NODE":313.5266,"ARG_OF_PERICENTER":103.0558,"MEAN_ANOMALY":257.078,"EPHEMERIS_TYPE":0,"NORAD_CAT_ID":48042,"ELEMENT_SET_NO":999,"REV_AT_EPOCH":25801,"BSTAR":0.0026729307,"MEAN_MOTION_DOT":0.00000989,"MEAN_MOTION_DDOT":0},{"OBJECT_NAME":"ONEWEB-0152","OBJECT_ID":"2021-025B","EPOCH":"2026-07-20T20:38:01.400352","CLASSIFICATION_TYPE":"U","MEAN_MOTION":13.13472775,"ECCENTRICITY":0.0001894,"INCLINATION":87.8993,"RA_OF_ASC_NODE":313.5226,"ARG_OF_PERICENTER":103.2392,"MEAN_ANOMALY":256.8948,"EPHEMERIS_TYPE":0,"NORAD_CAT_ID":48043,"ELEMENT_SET_NO":999,"REV_AT_EPOCH":25797,"BSTAR":-0.0003235042,"MEAN_MOTION_DOT":-0.00000105,"MEAN_MOTION_DDOT":0},{"OBJECT_NAME":"ONEWEB-0153","OBJECT_ID":"2021-025C","EPOCH":"2026-07-20T20:06:21.549888","CLASSIFICATION_TYPE":"U","MEAN_MOTION":13.1346987,"ECCENTRICITY":0.00020137,"INCLINATION":87.898,"RA_OF_ASC_NODE":313.5271,"ARG_OF_PERICENTER":98.8025,"MEAN_ANOMALY":261.3332,"EPHEMERIS_TYPE":0,"NORAD_CAT_ID":48044,"ELEMENT_SET_NO":999,"REV_AT_EPOCH":25796,"BSTAR":0.00083392309,"MEAN_MOTION_DOT":0.00000317,"MEAN_MOTION_DDOT":0},{"OBJECT_NAME":"ONEWEB-0154","OBJECT_ID":"2021-025D","EPOCH":"2026-07-20T20:01:29.007264","CLASSIFICATION_TYPE":"U","MEAN_MOTION":13.13470188,"ECCENTRICITY":0.00020241,"INCLINATION":87.8987,"RA_OF_ASC_NODE":313.5276,"ARG_OF_PERICENTER":105.5173,"MEAN_ANOMALY":254.618,"EPHEMERIS_TYPE":0,"NORAD_CAT_ID":48045,"ELEMENT_SET_NO":999,"REV_AT_EPOCH":25792,"BSTAR":0.00073624115,"MEAN_MOTION_DOT":0.00000282,"MEAN_MOTION_DDOT":0}]}
